{"fetched_at":"2026-07-06T08:47:03.717Z","source":"https://celestrak.org/NORAD/elements/gp.php?NAME=HAWK&FORMAT=JSON","constellation":"hawkeye-360","records":[{"OBJECT_NAME":"HAWK-7B","OBJECT_ID":"2023-054R","EPOCH":"2026-07-05T06:09:48.032352","CLASSIFICATION_TYPE":"U","MEAN_MOTION":15.27562044,"ECCENTRICITY":0.0002401,"INCLINATION":97.2702,"RA_OF_ASC_NODE":71.4049,"ARG_OF_PERICENTER":34.8414,"MEAN_ANOMALY":325.2983,"EPHEMERIS_TYPE":0,"NORAD_CAT_ID":56193,"ELEMENT_SET_NO":999,"REV_AT_EPOCH":17978,"BSTAR":0.00035063,"MEAN_MOTION_DOT":0.00009383,"MEAN_MOTION_DDOT":0},{"OBJECT_NAME":"HAWK-7C","OBJECT_ID":"2023-054Y","EPOCH":"2026-07-05T06:09:38.214720","CLASSIFICATION_TYPE":"U","MEAN_MOTION":15.27560194,"ECCENTRICITY":0.0002107,"INCLINATION":97.2677,"RA_OF_ASC_NODE":72.1677,"ARG_OF_PERICENTER":23.5693,"MEAN_ANOMALY":336.5643,"EPHEMERIS_TYPE":0,"NORAD_CAT_ID":56200,"ELEMENT_SET_NO":999,"REV_AT_EPOCH":17978,"BSTAR":0.00033657,"MEAN_MOTION_DOT":0.00009003,"MEAN_MOTION_DDOT":0},{"OBJECT_NAME":"HAWK-8A","OBJECT_ID":"2024-066B","EPOCH":"2026-07-05T08:52:38.802720","CLASSIFICATION_TYPE":"U","MEAN_MOTION":14.99268768,"ECCENTRICITY":0.000211,"INCLINATION":45.5935,"RA_OF_ASC_NODE":182.6253,"ARG_OF_PERICENTER":174.0907,"MEAN_ANOMALY":185.9999,"EPHEMERIS_TYPE":0,"NORAD_CAT_ID":59443,"ELEMENT_SET_NO":999,"REV_AT_EPOCH":12256,"BSTAR":0.00016269,"MEAN_MOTION_DOT":0.00001784,"MEAN_MOTION_DDOT":0},{"OBJECT_NAME":"HAWK-8B","OBJECT_ID":"2024-066D","EPOCH":"2026-07-04T08:54:01.012320","CLASSIFICATION_TYPE":"U","MEAN_MOTION":14.99275999,"ECCENTRICITY":0.00021813,"INCLINATION":45.6163,"RA_OF_ASC_NODE":189.7483,"ARG_OF_PERICENTER":173.7363,"MEAN_ANOMALY":186.3546,"EPHEMERIS_TYPE":0,"NORAD_CAT_ID":59445,"ELEMENT_SET_NO":999,"REV_AT_EPOCH":12240,"BSTAR":0.0012775905,"MEAN_MOTION_DOT":0.00015622,"MEAN_MOTION_DDOT":0},{"OBJECT_NAME":"HAWK-9A","OBJECT_ID":"2024-066E","EPOCH":"2026-07-05T09:25:30.409248","CLASSIFICATION_TYPE":"U","MEAN_MOTION":14.99195723,"ECCENTRICITY":0.0001855,"INCLINATION":45.6081,"RA_OF_ASC_NODE":183.1328,"ARG_OF_PERICENTER":154.2748,"MEAN_ANOMALY":205.8226,"EPHEMERIS_TYPE":0,"NORAD_CAT_ID":59446,"ELEMENT_SET_NO":999,"REV_AT_EPOCH":12256,"BSTAR":0.0001718,"MEAN_MOTION_DOT":0.00001893,"MEAN_MOTION_DDOT":0},{"OBJECT_NAME":"HAWK-9C","OBJECT_ID":"2024-066G","EPOCH":"2026-07-05T09:25:54.590880","CLASSIFICATION_TYPE":"U","MEAN_MOTION":14.9919934,"ECCENTRICITY":0.0001736,"INCLINATION":45.6043,"RA_OF_ASC_NODE":182.2338,"ARG_OF_PERICENTER":130.9492,"MEAN_ANOMALY":229.154,"EPHEMERIS_TYPE":0,"NORAD_CAT_ID":59448,"ELEMENT_SET_NO":999,"REV_AT_EPOCH":12256,"BSTAR":0.00018568,"MEAN_MOTION_DOT":0.00002064,"MEAN_MOTION_DDOT":0},{"OBJECT_NAME":"HAWK-8C","OBJECT_ID":"2024-066H","EPOCH":"2026-07-05T00:52:48.968832","CLASSIFICATION_TYPE":"U","MEAN_MOTION":14.99273187,"ECCENTRICITY":0.000199,"INCLINATION":45.605,"RA_OF_ASC_NODE":185.3353,"ARG_OF_PERICENTER":188.7443,"MEAN_ANOMALY":171.3404,"EPHEMERIS_TYPE":0,"NORAD_CAT_ID":59449,"ELEMENT_SET_NO":999,"REV_AT_EPOCH":12250,"BSTAR":0.00025014,"MEAN_MOTION_DOT":0.00002867,"MEAN_MOTION_DDOT":0},{"OBJECT_NAME":"HAWK-10A","OBJECT_ID":"2024-149CA","EPOCH":"2026-07-05T03:44:03.268896","CLASSIFICATION_TYPE":"U","MEAN_MOTION":14.96571991,"ECCENTRICITY":0.0003842,"INCLINATION":97.689,"RA_OF_ASC_NODE":261.7582,"ARG_OF_PERICENTER":37.1483,"MEAN_ANOMALY":323.0003,"EPHEMERIS_TYPE":0,"NORAD_CAT_ID":60540,"ELEMENT_SET_NO":999,"REV_AT_EPOCH":10267,"BSTAR":0.00023294,"MEAN_MOTION_DOT":0.00002594,"MEAN_MOTION_DDOT":0},{"OBJECT_NAME":"HAWK-10B","OBJECT_ID":"2024-149CF","EPOCH":"2026-07-05T03:43:51.230784","CLASSIFICATION_TYPE":"U","MEAN_MOTION":14.96571928,"ECCENTRICITY":0.0006187,"INCLINATION":97.6812,"RA_OF_ASC_NODE":261.0952,"ARG_OF_PERICENTER":47.2734,"MEAN_ANOMALY":312.9007,"EPHEMERIS_TYPE":0,"NORAD_CAT_ID":60545,"ELEMENT_SET_NO":999,"REV_AT_EPOCH":10267,"BSTAR":0.00023707,"MEAN_MOTION_DOT":0.00002642,"MEAN_MOTION_DDOT":0},{"OBJECT_NAME":"HAWK-10C","OBJECT_ID":"2024-149DM","EPOCH":"2026-07-05T03:44:19.667616","CLASSIFICATION_TYPE":"U","MEAN_MOTION":14.96571987,"ECCENTRICITY":0.0003436,"INCLINATION":97.6731,"RA_OF_ASC_NODE":260.416,"ARG_OF_PERICENTER":28.1317,"MEAN_ANOMALY":332.0089,"EPHEMERIS_TYPE":0,"NORAD_CAT_ID":60575,"ELEMENT_SET_NO":999,"REV_AT_EPOCH":10267,"BSTAR":0.00023916,"MEAN_MOTION_DOT":0.00002665,"MEAN_MOTION_DDOT":0},{"OBJECT_NAME":"HAWK-11B","OBJECT_ID":"2024-247C","EPOCH":"2026-07-05T01:18:22.415040","CLASSIFICATION_TYPE":"U","MEAN_MOTION":15.30570455,"ECCENTRICITY":0.0004379,"INCLINATION":45.0141,"RA_OF_ASC_NODE":191.7804,"ARG_OF_PERICENTER":324.5613,"MEAN_ANOMALY":35.4979,"EPHEMERIS_TYPE":0,"NORAD_CAT_ID":62379,"ELEMENT_SET_NO":999,"REV_AT_EPOCH":8574,"BSTAR":0.00042094,"MEAN_MOTION_DOT":0.00012399,"MEAN_MOTION_DDOT":0},{"OBJECT_NAME":"HAWK-11C","OBJECT_ID":"2024-247E","EPOCH":"2026-07-05T01:17:42.213984","CLASSIFICATION_TYPE":"U","MEAN_MOTION":15.30567145,"ECCENTRICITY":0.0005256,"INCLINATION":45.0025,"RA_OF_ASC_NODE":191.1245,"ARG_OF_PERICENTER":315.5074,"MEAN_ANOMALY":44.5388,"EPHEMERIS_TYPE":0,"NORAD_CAT_ID":62381,"ELEMENT_SET_NO":999,"REV_AT_EPOCH":8574,"BSTAR":0.00033567,"MEAN_MOTION_DOT":0.00009821,"MEAN_MOTION_DDOT":0},{"OBJECT_NAME":"HAWK-11A","OBJECT_ID":"2024-247F","EPOCH":"2026-07-05T01:17:49.727328","CLASSIFICATION_TYPE":"U","MEAN_MOTION":15.30567248,"ECCENTRICITY":0.0004824,"INCLINATION":44.9924,"RA_OF_ASC_NODE":190.4631,"ARG_OF_PERICENTER":314.3845,"MEAN_ANOMALY":45.6644,"EPHEMERIS_TYPE":0,"NORAD_CAT_ID":62382,"ELEMENT_SET_NO":999,"REV_AT_EPOCH":8574,"BSTAR":0.00034006,"MEAN_MOTION_DOT":0.00009954,"MEAN_MOTION_DDOT":0},{"OBJECT_NAME":"HAWK-12C","OBJECT_ID":"2025-138A","EPOCH":"2026-07-04T23:15:19.605024","CLASSIFICATION_TYPE":"U","MEAN_MOTION":15.18347805,"ECCENTRICITY":0.0015803,"INCLINATION":97.4345,"RA_OF_ASC_NODE":188.1117,"ARG_OF_PERICENTER":83.0072,"MEAN_ANOMALY":277.2959,"EPHEMERIS_TYPE":0,"NORAD_CAT_ID":64621,"ELEMENT_SET_NO":999,"REV_AT_EPOCH":5656,"BSTAR":0.00031677,"MEAN_MOTION_DOT":0.00006459,"MEAN_MOTION_DDOT":0},{"OBJECT_NAME":"HAWK-12B","OBJECT_ID":"2025-138B","EPOCH":"2026-07-04T23:15:34.585056","CLASSIFICATION_TYPE":"U","MEAN_MOTION":15.183471,"ECCENTRICITY":0.0014748,"INCLINATION":97.4468,"RA_OF_ASC_NODE":188.7891,"ARG_OF_PERICENTER":78.7711,"MEAN_ANOMALY":281.518,"EPHEMERIS_TYPE":0,"NORAD_CAT_ID":64622,"ELEMENT_SET_NO":999,"REV_AT_EPOCH":5656,"BSTAR":0.00031557,"MEAN_MOTION_DOT":0.00006431,"MEAN_MOTION_DDOT":0}]}
